{"type": "FeatureCollection", "features": [ {"type": "Feature", "properties": {"norad_id": 32350, "name": "FENGYUN 1C DEB", "group": "fengyun-1c-debris", "lat": 5.952367690648738, "lon": -153.4977850054292, "alt_km": 869.6594726394314, "timestamp": "2025-12-06T18:50:10.455008+00:00", "meta": {"OBJECT_NAME": "FENGYUN 1C DEB", "OBJECT_ID": "1999-025CYT", "EPOCH": "2025-12-05T20:31:39.778464", "MEAN_MOTION": 14.52477778, "ECCENTRICITY": 0.0267162, "INCLINATION": 98.2291, "RA_OF_ASC_NODE": 24.725, "ARG_OF_PERICENTER": 319.9483, "MEAN_ANOMALY": 38.2279, "EPHEMERIS_TYPE": 0, "CLASSIFICATION_TYPE": "U", "NORAD_CAT_ID": 32350, "ELEMENT_SET_NO": 999, "REV_AT_EPOCH": 97427, "BSTAR": 0.0012950671, "MEAN_MOTION_DOT": 8.414e-05, "MEAN_MOTION_DDOT": 0}, "tle": {"line1": "1 32350U 99025CYT 25339.85532151  .00008414  00000+0  12951-2 0  9996", "line2": "2 32350  98.2291  24.7250 0267162 319.9483  38.2279 14.52477778974279"}}, "geometry": {"type": "Point", "coordinates": [-153.4977850054292, 5.952367690648738]}}, {"type": "Feature", "properties": {"norad_id": 32352, "name": "FENGYUN 1C DEB", "group": "fengyun-1c-debris", "lat": 25.021500248085577, "lon": 84.76456385174276, "alt_km": 681.4068395606882, "timestamp": "2025-12-06T18:50:10.455018+00:00", "meta": {"OBJECT_NAME": "FENGYUN 1C DEB", "OBJECT_ID": "1999-025CYV", "EPOCH": "2025-12-03T13:28:47.441280", "MEAN_MOTION": 14.41397629, "ECCENTRICITY": 0.01208838, "INCLINATION": 98.7762, "RA_OF_ASC_NODE": 257.3194, "ARG_OF_PERICENTER": 198.3056, "MEAN_ANOMALY": 161.3763, "EPHEMERIS_TYPE": 0, "CLASSIFICATION_TYPE": "U", "NORAD_CAT_ID": 32352, "ELEMENT_SET_NO": 999, "REV_AT_EPOCH": 65137, "BSTAR": 0.00035669846, "MEAN_MOTION_DOT": 1.21e-05, "MEAN_MOTION_DDOT": 0}, "tle": {"line1": "1 32352U 99025CYV 25337.56166020  .00001210  00000+0  35670-3 0  9993", "line2": "2 32352  98.7762 257.3194 0120883 198.3056 161.3763 14.41397629651376"}}, "geometry": {"type": "Point", "coordinates": [84.76456385174276, 25.021500248085577]}}, {"type": "Feature", "properties": {"norad_id": 32353, "name": "FENGYUN 1C DEB", "group": "fengyun-1c-debris", "lat": 49.7216526026279, "lon": 146.6698448628442, "alt_km": 964.2699386596832, "timestamp": "2025-12-06T18:50:10.455027+00:00", "meta": {"OBJECT_NAME": "FENGYUN 1C DEB", "OBJECT_ID": "1999-025CYW", "EPOCH": "2025-11-11T06:05:01.772736", "MEAN_MOTION": 14.03377644, "ECCENTRICITY": 0.01260396, "INCLINATION": 98.9214, "RA_OF_ASC_NODE": 132.3044, "ARG_OF_PERICENTER": 286.1717, "MEAN_ANOMALY": 72.5609, "EPHEMERIS_TYPE": 0, "CLASSIFICATION_TYPE": "U", "NORAD_CAT_ID": 32353, "ELEMENT_SET_NO": 999, "REV_AT_EPOCH": 62752, "BSTAR": 0.0037928572, "MEAN_MOTION_DOT": 6.321e-05, "MEAN_MOTION_DDOT": 0}, "tle": {"line1": "1 32353U 99025CYW 25315.25349274  .00006321  00000+0  37929-2 0  9996", "line2": "2 32353  98.9214 132.3044 0126039 286.1717  72.5609 14.03377644627521"}}, "geometry": {"type": "Point", "coordinates": [146.6698448628442, 49.7216526026279]}}, {"type": "Feature", "properties": {"norad_id": 32355, "name": "FENGYUN 1C DEB", "group": "fengyun-1c-debris", "lat": 32.34276990328358, "lon": 93.66754189796917, "alt_km": 464.9414968257315, "timestamp": "2025-12-06T18:50:10.455037+00:00", "meta": {"OBJECT_NAME": "FENGYUN 1C DEB", "OBJECT_ID": "1999-025CYY", "EPOCH": "2025-11-30T13:45:12.852288", "MEAN_MOTION": 15.2698689, "ECCENTRICITY": 0.00340494, "INCLINATION": 100.3462, "RA_OF_ASC_NODE": 258.4114, "ARG_OF_PERICENTER": 91.868, "MEAN_ANOMALY": 83.2659, "EPHEMERIS_TYPE": 0, "CLASSIFICATION_TYPE": "U", "NORAD_CAT_ID": 32355, "ELEMENT_SET_NO": 999, "REV_AT_EPOCH": 64804, "BSTAR": 0.0114101, "MEAN_MOTION_DOT": 0.00320062, "MEAN_MOTION_DDOT": 0}, "tle": {"line1": "1 32355U 99025CYY 25334.57306542  .00320062  00000+0  11410-1 0  9992", "line2": "2 32355 100.3462 258.4114 0034049  91.8680  83.2659 15.26986890648042"}}, "geometry": {"type": "Point", "coordinates": [93.66754189796917, 32.34276990328358]}}, {"type": "Feature", "properties": {"norad_id": 32356, "name": "FENGYUN 1C DEB", "group": "fengyun-1c-debris", "lat": -67.74468825157159, "lon": -11.991622237368961, "alt_km": 956.6225910240737, "timestamp": "2025-12-06T18:50:10.455047+00:00", "meta": {"OBJECT_NAME": "FENGYUN 1C DEB", "OBJECT_ID": "1999-025CYZ", "EPOCH": "2025-12-05T21:06:29.701152", "MEAN_MOTION": 14.03310468, "ECCENTRICITY": 0.01246409, "INCLINATION": 102.497, "RA_OF_ASC_NODE": 199.5863, "ARG_OF_PERICENTER": 32.0445, "MEAN_ANOMALY": 328.821, "EPHEMERIS_TYPE": 0, "CLASSIFICATION_TYPE": "U", "NORAD_CAT_ID": 32356, "ELEMENT_SET_NO": 999, "REV_AT_EPOCH": 68291, "BSTAR": 0.0037262863, "MEAN_MOTION_DOT": 6.166e-05, "MEAN_MOTION_DDOT": 0}, "tle": {"line1": "1 32356U 99025CYZ 25339.87951043  .00006166  00000+0  37263-2 0  9994", "line2": "2 32356 102.4970 199.5863 0124640  32.0445 328.8210 14.03310468682910"}}, "geometry": {"type": "Point", "coordinates": [-11.991622237368961, -67.74468825157159]}}, {"type": "Feature", "properties": {"norad_id": 32357, "name": "FENGYUN 1C DEB", "group": "fengyun-1c-debris", "lat": 71.63725652843458, "lon": -131.38379880222107, "alt_km": 1027.0610354641803, "timestamp": "2025-12-06T18:50:10.455057+00:00", "meta": {"OBJECT_NAME": "FENGYUN 1C DEB", "OBJECT_ID": "1999-025CZA", "EPOCH": "2025-12-03T20:59:33.570240", "MEAN_MOTION": 13.68494988, "ECCENTRICITY": 0.0493325, "INCLINATION": 98.8601, "RA_OF_ASC_NODE": 17.9025, "ARG_OF_PERICENTER": 211.2254, "MEAN_ANOMALY": 330.7935, "EPHEMERIS_TYPE": 0, "CLASSIFICATION_TYPE": "U", "NORAD_CAT_ID": 32357, "ELEMENT_SET_NO": 999, "REV_AT_EPOCH": 66666, "BSTAR": 0.0053758, "MEAN_MOTION_DOT": 0.00010819, "MEAN_MOTION_DDOT": 0}, "tle": {"line1": "1 32357U 99025CZA 25337.87469410  .00010819  00000+0  53758-2 0  9992", "line2": "2 32357  98.8601  17.9025 0493325 211.2254 330.7935 13.68494988666661"}}, "geometry": {"type": "Point", "coordinates": [-131.38379880222107, 71.63725652843458]}}, {"type": "Feature", "properties": {"norad_id": 32361, "name": "FENGYUN 1C DEB", "group": "fengyun-1c-debris", "lat": 59.4959478125126, "lon": 24.04746493505568, "alt_km": 683.8619648301974, "timestamp": "2025-12-06T18:50:10.455067+00:00", "meta": {"OBJECT_NAME": "FENGYUN 1C DEB", "OBJECT_ID": "1999-025CZE", "EPOCH": "2025-11-30T15:14:44.805984", "MEAN_MOTION": 14.50750787, "ECCENTRICITY": 0.00468278, "INCLINATION": 98.8638, "RA_OF_ASC_NODE": 32.9334, "ARG_OF_PERICENTER": 80.9929, "MEAN_ANOMALY": 279.656, "EPHEMERIS_TYPE": 0, "CLASSIFICATION_TYPE": "U", "NORAD_CAT_ID": 32361, "ELEMENT_SET_NO": 999, "REV_AT_EPOCH": 96169, "BSTAR": 0.0020354767, "MEAN_MOTION_DOT": 8.08e-05, "MEAN_MOTION_DDOT": 0}, "tle": {"line1": "1 32361U 99025CZE 25334.63524081  .00008080  00000+0  20355-2 0  9998", "line2": "2 32361  98.8638  32.9334 0046827  80.9929 279.6560 14.50750787961697"}}, "geometry": {"type": "Point", "coordinates": [24.04746493505568, 59.4959478125126]}}, {"type": "Feature", "properties": {"norad_id": 32362, "name": "FENGYUN 1C DEB", "group": "fengyun-1c-debris", "lat": 66.23393417490973, "lon": 155.09381658344833, "alt_km": 1212.0833716959914, "timestamp": "2025-12-06T18:50:10.455077+00:00", "meta": {"OBJECT_NAME": "FENGYUN 1C DEB", "OBJECT_ID": "1999-025CZF", "EPOCH": "2025-12-06T04:12:30.539808", "MEAN_MOTION": 13.65121089, "ECCENTRICITY": 0.02757306, "INCLINATION": 99.8444, "RA_OF_ASC_NODE": 311.2521, "ARG_OF_PERICENTER": 301.8527, "MEAN_ANOMALY": 55.6047, "EPHEMERIS_TYPE": 0, "CLASSIFICATION_TYPE": "U", "NORAD_CAT_ID": 32362, "ELEMENT_SET_NO": 999, "REV_AT_EPOCH": 91040, "BSTAR": 0.0056867931, "MEAN_MOTION_DOT": 5.931e-05, "MEAN_MOTION_DDOT": 0}, "tle": {"line1": "1 32362U 99025CZF 25340.17535347  .00005931  00000+0  56868-2 0  9992", "line2": "2 32362  99.8444 311.2521 0275730 301.8527  55.6047 13.65121089910408"}}, "geometry": {"type": "Point", "coordinates": [155.09381658344833, 66.23393417490973]}}, {"type": "Feature", "properties": {"norad_id": 32363, "name": "FENGYUN 1C DEB", "group": "fengyun-1c-debris", "lat": -79.509446141791, "lon": -9.796169597003582, "alt_km": 452.99999950373603, "timestamp": "2025-12-06T18:50:10.455087+00:00", "meta": {"OBJECT_NAME": "FENGYUN 1C DEB", "OBJECT_ID": "1999-025CZG", "EPOCH": "2025-12-06T03:40:07.296672", "MEAN_MOTION": 15.460546, "ECCENTRICITY": 0.00642337, "INCLINATION": 98.333, "RA_OF_ASC_NODE": 297.1439, "ARG_OF_PERICENTER": 164.1635, "MEAN_ANOMALY": 196.164, "EPHEMERIS_TYPE": 0, "CLASSIFICATION_TYPE": "U", "NORAD_CAT_ID": 32363, "ELEMENT_SET_NO": 999, "REV_AT_EPOCH": 96706, "BSTAR": 0.002261669, "MEAN_MOTION_DOT": 0.00121152, "MEAN_MOTION_DDOT": 0}, "tle": {"line1": "1 32363U 99025CZG 25340.15286223  .00121152  00000+0  22617-2 0  9996", "line2": "2 32363  98.3330 297.1439 0064233 164.1635 196.1640 15.46054600967060"}}, "geometry": {"type": "Point", "coordinates": [-9.796169597003582, -79.509446141791]}}, {"type": "Feature", "properties": {"norad_id": 32364, "name": "FENGYUN 1C DEB", "group": "fengyun-1c-debris", "lat": 79.28613383754204, "lon": 50.576866153297466, "alt_km": 860.2415790246587, "timestamp": "2025-12-06T18:50:10.455097+00:00", "meta": {"OBJECT_NAME": "FENGYUN 1C DEB", "OBJECT_ID": "1999-025CZH", "EPOCH": "2025-11-29T08:05:37.624992", "MEAN_MOTION": 14.14317962, "ECCENTRICITY": 0.01349396, "INCLINATION": 98.2918, "RA_OF_ASC_NODE": 173.2369, "ARG_OF_PERICENTER": 222.8285, "MEAN_ANOMALY": 136.2316, "EPHEMERIS_TYPE": 0, "CLASSIFICATION_TYPE": "U", "NORAD_CAT_ID": 32364, "ELEMENT_SET_NO": 999, "REV_AT_EPOCH": 63519, "BSTAR": 0.0022712328, "MEAN_MOTION_DOT": 4.699e-05, "MEAN_MOTION_DDOT": 0}, "tle": {"line1": "1 32364U 99025CZH 25333.33724103  .00004699  00000+0  22712-2 0  9995", "line2": "2 32364  98.2918 173.2369 0134939 222.8285 136.2316 14.14317962635190"}}, "geometry": {"type": "Point", "coordinates": [50.576866153297466, 79.28613383754204]}}]}